[Satellite]
VERSION=1.1
NAME=FLOCK 3P-25
NICKNAME=FLOCK 3P-25
TLE1=1 41964U 17008S   17186.12404895  .00003027  00000-0  13386-3 0  9992
TLE2=2 41964  97.4945 247.3600 0010426 124.0375 236.1853 15.22421626 21081
